IONOSFERA-M 4           
1 64877U 25155B   26178.20545302  .00000044  00000+0  39810-4 0  9997
2 64877  98.6027 139.7757 0001395 115.7524 244.3798 14.21490421 47824
MICROCARB               
1 64899U 25156A   26178.20729740  .00000500  00000+0  86431-4 0  9990
2 64899  97.9920 255.1721 0015467 234.0869 125.8904 14.72533186 49442
CO3D 3                  
1 64900U 25156B   26178.19269624  .00004620  00000+0  21640-3 0  9998
2 64900  97.4334 256.7416 0001778 118.1503 241.9912 15.20205218 51059
CO3D 4                  
1 64901U 25156C   26178.19284765  .00004631  00000+0  21688-3 0  9996
2 64901  97.4336 256.7418 0000505 185.7166 174.4063 15.20206716 51057
CO3D 2                  
1 64902U 25156D   26178.15950046  .00004919  00000+0  23012-3 0  9997
2 64902  97.4335 256.6076 0001514 100.1919 259.9487 15.20211917 51041
CO3D 1                  
1 64903U 25156E   26178.22547610  .00005000  00000+0  23391-3 0  9997
2 64903  97.4334 256.6729 0001372 107.6840 252.4545 15.20206571 51057
PRSC-S1                 
1 65055U 25164A   26178.14198163  .00003874  00000+0  26917-3 0  9995
2 65055  41.1295 231.7441 0005171  56.5153 303.6155 15.06530529 49930
SENTINEL-6B             
1 66514U 25264A   26178.15762711 -.00000075  00000+0 -58806-4 0  9999
2 66514  66.0408 114.4702 0007942 268.9526  91.0579 12.80929975 28448
CAS500-3                
1 66655U 25274F   26178.03093273  .00001268  00000+0  14276-3 0  9998
2 66655  97.7444 105.8581 0006955  85.2783 274.9228 14.88343363 31619
CSG-3                   
1 67304U 26001A   26178.05556497  .00000308  00000+0  45265-4 0  9990
2 67304  97.8888   1.5144 0001468  96.3497 263.7883 14.82160118 25929
PRSC-E03                
1 68835U 26092A   26177.99686672  .00003047  00000+0  20830-3 0  9994
2 68835  38.0023  31.8333 0002688 104.6762 255.4297 15.06718176  9431
CAS500-2                
1 69013U 26100AK  26178.22015231  .00006461  00000+0  29661-3 0  9991
2 69013  97.3900  75.8940 0009549   2.4706 357.6575 15.20704344  8330
