OBJECT_NAME,OBJECT_ID,EPOCH,MEAN_MOTION,ECCENTRICITY,INCLINATION,RA_OF_ASC_NODE,ARG_OF_PERICENTER,MEAN_ANOMALY,EPHEMERIS_TYPE,CLASSIFICATION_TYPE,NORAD_CAT_ID,ELEMENT_SET_NO,REV_AT_EPOCH,BSTAR,MEAN_MOTION_DOT,MEAN_MOTION_DDOT
IONOSFERA-M 4,2025-155B,2026-06-27T04:55:51.140928,14.21490421,.0001395,98.6027,139.7757,115.7524,244.3798,0,U,64877,999,4782,.3981E-4,.44E-6,0
MICROCARB,2025-156A,2026-06-27T04:58:30.495360,14.72533186,.0015467,97.9920,255.1721,234.0869,125.8904,0,U,64899,999,4944,.86431E-4,.5E-5,0
CO3D 3,2025-156B,2026-06-27T04:37:28.955136,15.20205218,.0001778,97.4334,256.7416,118.1503,241.9912,0,U,64900,999,5105,.2164E-3,.462E-4,0
CO3D 4,2025-156C,2026-06-27T04:37:42.036960,15.20206716,.0000505,97.4336,256.7418,185.7166,174.4063,0,U,64901,999,5105,.21688E-3,.4631E-4,0
CO3D 2,2025-156D,2026-06-27T03:49:40.839744,15.20211917,.0001514,97.4335,256.6076,100.1919,259.9487,0,U,64902,999,5104,.23012E-3,.4919E-4,0
CO3D 1,2025-156E,2026-06-27T05:24:41.135040,15.20206571,.0001372,97.4334,256.6729,107.6840,252.4545,0,U,64903,999,5105,.23391E-3,.5E-4,0
PRSC-S1,2025-164A,2026-06-27T03:24:27.212832,15.06530529,.0005171,41.1295,231.7441,56.5153,303.6155,0,U,65055,999,4993,.26917E-3,.3874E-4,0
SENTINEL-6B,2025-264A,2026-06-27T03:46:58.982304,12.80929975,.0007942,66.0408,114.4702,268.9526,91.0579,0,U,66514,999,2844,-.58806E-4,-.75E-6,0
CAS500-3,2025-274F,2026-06-27T00:44:32.587872,14.88343363,.0006955,97.7444,105.8581,85.2783,274.9228,0,U,66655,999,3161,.14276E-3,.1268E-4,0
CSG-3,2026-001A,2026-06-27T01:20:00.813408,14.82160118,.0001468,97.8888,1.5144,96.3497,263.7883,0,U,67304,999,2592,.45265E-4,.308E-5,0
PRSC-E03,2026-092A,2026-06-26T23:55:29.284608,15.06718176,.0002688,38.0023,31.8333,104.6762,255.4297,0,U,68835,999,943,.2083E-3,.3047E-4,0
CAS500-2,2026-100AK,2026-06-27T05:17:01.159584,15.20704344,.0009549,97.3900,75.8940,2.4706,357.6575,0,U,69013,999,833,.29661E-3,.6461E-4,0
